DELTA 2 R/B(1)          
1 20453U 90008B   26040.23434100  .00075522  00000+0  99598-3 0  9993
2 20453  35.6062   1.0297 0094093 353.0521   6.8907 15.52024917921706
COSMOS 2058             
1 20465U 90010A   26040.17564446  .00004664  00000+0  27677-3 0  9997
2 20465  82.4642  75.5181 0011985  76.6975 283.5590 15.11056952937934
SL-14 R/B               
1 20466U 90010B   26040.15677641  .00000480  00000+0  55182-4 0  9993
2 20466  82.5027 294.1915 0020777  37.5060 322.7600 14.83543721924259
SL-14 R/B               
1 20511U 90018B   26040.07954162  .00000434  00000+0  51495-4 0  9991
2 20511  82.5182 249.8374 0016249 181.2282 178.8895 14.82114527918346
HST                     
1 20580U 90037B   26039.77140942  .00007499  00000+0  25069-3 0  9991
2 20580  28.4663 237.2056 0001769 143.1754 216.8963 15.29016206768883
SL-16 R/B               
1 20625U 90046B   26040.27909651  .00000229  00000+0  14276-3 0  9990
2 20625  71.0004 357.5780 0014728 339.2248  20.8274 14.15006437844377
COSMOS 2084             
1 20663U 90055A   26040.29472694  .00002918  00000+0  21516-3 0  9998
2 20663  62.7897  72.4098 0021595 184.0226 176.0704 15.05466070932040
SL-6 R/B(2)             
1 20666U 90055D   26040.23897487  .00003159  00000+0  24442-3 0  9995
2 20666  62.7849 350.5899 0020492 338.8985  21.1267 15.03444987933917
SL-8 R/B                
1 20775U 90078B   26040.14162076  .00014734  00000+0  43401-3 0  9997
2 20775  82.9022 276.9649 0366967 109.6441 254.4767 14.88118565805051
SL-8 R/B                
1 21088U 91006B   26039.94382749  .00000041  00000+0  25707-4 0  9990
2 21088  82.9433 191.4172 0023634 114.7688   0.8196 13.77492104760115
OKEAN-3                 
1 21397U 91039A   26040.28325978  .00003982  00000+0  28111-3 0  9997
2 21397  82.5178   4.3543 0016510  70.2376 290.0629 15.04577172860766
COSMOS 2151             
1 21422U 91042A   26040.26643834  .00002541  00000+0  20200-3 0  9993
2 21422  82.4963 111.0945 0013303 149.9043 210.2948 14.99996315858931
