CCSDS_OMM_VERS = 2.0
CREATION_DATE  = 
ORIGINATOR     = 

OBJECT_NAME    = DELTA 2 R/B(1)
OBJECT_ID      = 1990-008B
CENTER_NAME    = EARTH
REF_FRAME      = TEME
TIME_SYSTEM    = UTC
MEAN_ELEMENT_THEORY = SGP/SGP4

EPOCH          = 2026-02-09T05:37:27.062400
MEAN_MOTION    = 15.52024917
ECCENTRICITY   = .00940935
INCLINATION    = 35.6062
RA_OF_ASC_NODE = 1.0297
ARG_OF_PERICENTER = 353.0521
MEAN_ANOMALY   = 6.8907

EPHEMERIS_TYPE = 0
CLASSIFICATION_TYPE = U
NORAD_CAT_ID   = 20453
ELEMENT_SET_NO = 999
REV_AT_EPOCH   = 92170
BSTAR          = .99597684E-3
MEAN_MOTION_DOT = .75522E-3
MEAN_MOTION_DDOT = 0

CCSDS_OMM_VERS = 2.0
CREATION_DATE  = 
ORIGINATOR     = 

OBJECT_NAME    = COSMOS 2058
OBJECT_ID      = 1990-010A
CENTER_NAME    = EARTH
REF_FRAME      = TEME
TIME_SYSTEM    = UTC
MEAN_ELEMENT_THEORY = SGP/SGP4

EPOCH          = 2026-02-09T04:12:55.681344
MEAN_MOTION    = 15.11056952
ECCENTRICITY   = .0011985
INCLINATION    = 82.4642
RA_OF_ASC_NODE = 75.5181
ARG_OF_PERICENTER = 76.6975
MEAN_ANOMALY   = 283.5590

EPHEMERIS_TYPE = 0
CLASSIFICATION_TYPE = U
NORAD_CAT_ID   = 20465
ELEMENT_SET_NO = 999
REV_AT_EPOCH   = 93793
BSTAR          = .27676611E-3
MEAN_MOTION_DOT = .4664E-4
MEAN_MOTION_DDOT = 0

CCSDS_OMM_VERS = 2.0
CREATION_DATE  = 
ORIGINATOR     = 

OBJECT_NAME    = SL-14 R/B
OBJECT_ID      = 1990-010B
CENTER_NAME    = EARTH
REF_FRAME      = TEME
TIME_SYSTEM    = UTC
MEAN_ELEMENT_THEORY = SGP/SGP4

EPOCH          = 2026-02-09T03:45:45.481824
MEAN_MOTION    = 14.83543721
ECCENTRICITY   = .00207776
INCLINATION    = 82.5027
RA_OF_ASC_NODE = 294.1915
ARG_OF_PERICENTER = 37.5060
MEAN_ANOMALY   = 322.7600

EPHEMERIS_TYPE = 0
CLASSIFICATION_TYPE = U
NORAD_CAT_ID   = 20466
ELEMENT_SET_NO = 999
REV_AT_EPOCH   = 92425
BSTAR          = .55181915E-4
MEAN_MOTION_DOT = .48E-5
MEAN_MOTION_DDOT = 0

CCSDS_OMM_VERS = 2.0
CREATION_DATE  = 
ORIGINATOR     = 

OBJECT_NAME    = SL-14 R/B
OBJECT_ID      = 1990-018B
CENTER_NAME    = EARTH
REF_FRAME      = TEME
TIME_SYSTEM    = UTC
MEAN_ELEMENT_THEORY = SGP/SGP4

EPOCH          = 2026-02-09T01:54:32.395968
MEAN_MOTION    = 14.82114527
ECCENTRICITY   = .00162499
INCLINATION    = 82.5182
RA_OF_ASC_NODE = 249.8374
ARG_OF_PERICENTER = 181.2282
MEAN_ANOMALY   = 178.8895

EPHEMERIS_TYPE = 0
CLASSIFICATION_TYPE = U
NORAD_CAT_ID   = 20511
ELEMENT_SET_NO = 999
REV_AT_EPOCH   = 91834
BSTAR          = .5149497E-4
MEAN_MOTION_DOT = .434E-5
MEAN_MOTION_DDOT = 0

CCSDS_OMM_VERS = 2.0
CREATION_DATE  = 
ORIGINATOR     = 

OBJECT_NAME    = HST
OBJECT_ID      = 1990-037B
CENTER_NAME    = EARTH
REF_FRAME      = TEME
TIME_SYSTEM    = UTC
MEAN_ELEMENT_THEORY = SGP/SGP4

EPOCH          = 2026-02-08T18:30:49.773888
MEAN_MOTION    = 15.29016206
ECCENTRICITY   = .00017698
INCLINATION    = 28.4663
RA_OF_ASC_NODE = 237.2056
ARG_OF_PERICENTER = 143.1754
MEAN_ANOMALY   = 216.8963

EPHEMERIS_TYPE = 0
CLASSIFICATION_TYPE = U
NORAD_CAT_ID   = 20580
ELEMENT_SET_NO = 999
REV_AT_EPOCH   = 76888
BSTAR          = .25068742E-3
MEAN_MOTION_DOT = .7499E-4
MEAN_MOTION_DDOT = 0

CCSDS_OMM_VERS = 2.0
CREATION_DATE  = 
ORIGINATOR     = 

OBJECT_NAME    = SL-16 R/B
OBJECT_ID      = 1990-046B
CENTER_NAME    = EARTH
REF_FRAME      = TEME
TIME_SYSTEM    = UTC
MEAN_ELEMENT_THEORY = SGP/SGP4

EPOCH          = 2026-02-09T06:41:53.938464
MEAN_MOTION    = 14.15006437
ECCENTRICITY   = .00147288
INCLINATION    = 71.0004
RA_OF_ASC_NODE = 357.5780
ARG_OF_PERICENTER = 339.2248
MEAN_ANOMALY   = 20.8274

EPHEMERIS_TYPE = 0
CLASSIFICATION_TYPE = U
NORAD_CAT_ID   = 20625
ELEMENT_SET_NO = 999
REV_AT_EPOCH   = 84437
BSTAR          = .14275893E-3
MEAN_MOTION_DOT = .229E-5
MEAN_MOTION_DDOT = 0

CCSDS_OMM_VERS = 2.0
CREATION_DATE  = 
ORIGINATOR     = 

OBJECT_NAME    = COSMOS 2084
OBJECT_ID      = 1990-055A
CENTER_NAME    = EARTH
REF_FRAME      = TEME
TIME_SYSTEM    = UTC
MEAN_ELEMENT_THEORY = SGP/SGP4

EPOCH          = 2026-02-09T07:04:24.407616
MEAN_MOTION    = 15.05466070
ECCENTRICITY   = .00215955
INCLINATION    = 62.7897
RA_OF_ASC_NODE = 72.4098
ARG_OF_PERICENTER = 184.0226
MEAN_ANOMALY   = 176.0704

EPHEMERIS_TYPE = 0
CLASSIFICATION_TYPE = U
NORAD_CAT_ID   = 20663
ELEMENT_SET_NO = 999
REV_AT_EPOCH   = 93204
BSTAR          = .21516169E-3
MEAN_MOTION_DOT = .2918E-4
MEAN_MOTION_DDOT = 0

CCSDS_OMM_VERS = 2.0
CREATION_DATE  = 
ORIGINATOR     = 

OBJECT_NAME    = SL-6 R/B(2)
OBJECT_ID      = 1990-055D
CENTER_NAME    = EARTH
REF_FRAME      = TEME
TIME_SYSTEM    = UTC
MEAN_ELEMENT_THEORY = SGP/SGP4

EPOCH          = 2026-02-09T05:44:07.428768
MEAN_MOTION    = 15.03444987
ECCENTRICITY   = .0020492
INCLINATION    = 62.7849
RA_OF_ASC_NODE = 350.5899
ARG_OF_PERICENTER = 338.8985
MEAN_ANOMALY   = 21.1267

EPHEMERIS_TYPE = 0
CLASSIFICATION_TYPE = U
NORAD_CAT_ID   = 20666
ELEMENT_SET_NO = 999
REV_AT_EPOCH   = 93391
BSTAR          = .24441779E-3
MEAN_MOTION_DOT = .3159E-4
MEAN_MOTION_DDOT = 0

CCSDS_OMM_VERS = 2.0
CREATION_DATE  = 
ORIGINATOR     = 

OBJECT_NAME    = SL-8 R/B
OBJECT_ID      = 1990-078B
CENTER_NAME    = EARTH
REF_FRAME      = TEME
TIME_SYSTEM    = UTC
MEAN_ELEMENT_THEORY = SGP/SGP4

EPOCH          = 2026-02-09T03:23:56.033664
MEAN_MOTION    = 14.88118565
ECCENTRICITY   = .03669674
INCLINATION    = 82.9022
RA_OF_ASC_NODE = 276.9649
ARG_OF_PERICENTER = 109.6441
MEAN_ANOMALY   = 254.4767

EPHEMERIS_TYPE = 0
CLASSIFICATION_TYPE = U
NORAD_CAT_ID   = 20775
ELEMENT_SET_NO = 999
REV_AT_EPOCH   = 80505
BSTAR          = .4340093E-3
MEAN_MOTION_DOT = .14734E-3
MEAN_MOTION_DDOT = 0

CCSDS_OMM_VERS = 2.0
CREATION_DATE  = 
ORIGINATOR     = 

OBJECT_NAME    = SL-8 R/B
OBJECT_ID      = 1991-006B
CENTER_NAME    = EARTH
REF_FRAME      = TEME
TIME_SYSTEM    = UTC
MEAN_ELEMENT_THEORY = SGP/SGP4

EPOCH          = 2026-02-08T22:39:06.695136
MEAN_MOTION    = 13.77492104
ECCENTRICITY   = .00236347
INCLINATION    = 82.9433
RA_OF_ASC_NODE = 191.4172
ARG_OF_PERICENTER = 114.7688
MEAN_ANOMALY   = 0.8196

EPHEMERIS_TYPE = 0
CLASSIFICATION_TYPE = U
NORAD_CAT_ID   = 21088
ELEMENT_SET_NO = 999
REV_AT_EPOCH   = 76011
BSTAR          = .25706794E-4
MEAN_MOTION_DOT = .41E-6
MEAN_MOTION_DDOT = 0

CCSDS_OMM_VERS = 2.0
CREATION_DATE  = 
ORIGINATOR     = 

OBJECT_NAME    = OKEAN-3
OBJECT_ID      = 1991-039A
CENTER_NAME    = EARTH
REF_FRAME      = TEME
TIME_SYSTEM    = UTC
MEAN_ELEMENT_THEORY = SGP/SGP4

EPOCH          = 2026-02-09T06:47:53.644992
MEAN_MOTION    = 15.04577172
ECCENTRICITY   = .00165101
INCLINATION    = 82.5178
RA_OF_ASC_NODE = 4.3543
ARG_OF_PERICENTER = 70.2376
MEAN_ANOMALY   = 290.0629

EPHEMERIS_TYPE = 0
CLASSIFICATION_TYPE = U
NORAD_CAT_ID   = 21397
ELEMENT_SET_NO = 999
REV_AT_EPOCH   = 86076
BSTAR          = .28111066E-3
MEAN_MOTION_DOT = .3982E-4
MEAN_MOTION_DDOT = 0

CCSDS_OMM_VERS = 2.0
CREATION_DATE  = 
ORIGINATOR     = 

OBJECT_NAME    = COSMOS 2151
OBJECT_ID      = 1991-042A
CENTER_NAME    = EARTH
REF_FRAME      = TEME
TIME_SYSTEM    = UTC
MEAN_ELEMENT_THEORY = SGP/SGP4

EPOCH          = 2026-02-09T06:23:40.272576
MEAN_MOTION    = 14.99996315
ECCENTRICITY   = .00133031
INCLINATION    = 82.4963
RA_OF_ASC_NODE = 111.0945
ARG_OF_PERICENTER = 149.9043
MEAN_ANOMALY   = 210.2948

EPHEMERIS_TYPE = 0
CLASSIFICATION_TYPE = U
NORAD_CAT_ID   = 21422
ELEMENT_SET_NO = 999
REV_AT_EPOCH   = 85893
BSTAR          = .20199684E-3
MEAN_MOTION_DOT = .2541E-4
MEAN_MOTION_DDOT = 0

